var tles = [{
  "ORBCOMM": [
    "1 25112C 97084A   20056.57798478  .00000000  00000-0  00000-0 0  9997",
    "2 25112  45.0152 239.8858 0007977 200.4076 159.6455 14.39033326161919"
  ],
  "ORBCOMM": [
    "1 25113C 97084B   20056.55984547  .00000000  00000-0  00000-0 0  9990",
    "2 25113  45.0163 241.3925 0005896 171.6227 188.4721 14.39011662336920"
  ],
  "ORBCOMM": [
    "1 25114C 97084C   20056.55991921  .00000000  00000-0  00000-0 0  9995",
    "2 25114  45.0148 240.6821 0006686 173.0146 187.0797 14.38972931161901"
  ],
  "ORBCOMM": [
    "1 25115C 97084D   20056.53245327  .00000000  00000-0  00000-0 0  9996",
    "2 25115  45.0155 240.5471 0005599 173.4900 186.6023 14.38993475161716"
  ],
  "ORBCOMM": [
    "1 25116C 97084E   20056.53569386  .00000000  00000-0  00000-0 0  9991",
    "2 25116  45.0160 241.0866 0006818 160.7409 199.3698 14.39005130161931"
  ],
  "ORBCOMM": [
    "1 25117C 97084F   20056.57770721  .00000000  00000-0  00000-0 0  9993",
    "2 25117  45.0157 241.0873 0002413 189.7922 170.2880 14.38983876160991"
  ],
  "ORBCOMM": [
    "1 25118C 97084G   20056.57061976  .00000000  00000-0  00000-0 0  9999",
    "2 25118  45.0154 240.8638 0002267 190.6421 212.8886 14.39022226161913"
  ],
  "ORBCOMM": [
    "1 25119C 97084H   20056.58858648  .00000000  00000-0  00000-0 0  9991",
    "2 25119  45.0149 241.0079 0003868 174.1702 185.9192 14.38993006161919"
  ],
}, {
  "ORBCOMM": [
    "1 25159C 98007C   20056.69241064  .00000000  00000-0  00000-0 0  9991",
    "2 25159 107.9948 134.4356 0042660  11.8476 348.3655 14.29761284146990"
  ],
}, {
  "ORBCOMM": [
    "1 25414C 98046B   20056.75846515  .00000000  00000-0  00000-0 0  9997",
    "2 25414  44.9962 314.5155 0005159 323.0642  36.9849 14.32965554125917"
  ],
  "ORBCOMM": [
    "1 25415C 98046C   20056.79839029  .00000000  00000-0  00000-0 0  9994",
    "2 25415  44.9968 314.8279 0003947 317.9302  90.5663 14.32931383126095"
  ],
  "ORBCOMM": [
    "1 25416C 98046D   20056.79687190  .00000000  00000-0  00000-0 0  9995",
    "2 25416  44.9965 315.0605 0001225 343.2702  16.8103 14.32921052126049"
  ],
  "ORBCOMM": [
    "1 25417C 98046E   20001.86351668  .00000000  00000-0  00000-0 0  9992",
    "2 25417  44.9943 214.2661 0004585  54.2712 305.8560 14.33164677118042"
  ],
  "ORBCOMM": [
    "1 25418C 98046F   20056.73914573  .00000000  00000-0  00000-0 0  9999",
    "2 25418  44.9997 317.2579 0004620 340.0325  69.3509 14.32964596126085"
  ],
  "ORBCOMM": [
    "1 25419C 98046G   20056.74745351  .00000000  00000-0  00000-0 0  9997",
    "2 25419  44.9992 316.9962 0003360 332.8658  79.8860 14.32974067125901"
  ],
  "ORBCOMM": [
    "1 25420C 98046H   20056.80066148  .00000000  00000-0  00000-0 0  9996",
    "2 25420  44.9998 317.8772 0005542 325.7936  34.2553 14.32823680126103"
  ],
}, {
  "ORBCOMM": [
    "1 25475C 98053A   20056.38845589  .00000000  00000-0  00000-0 0  9991",
    "2 25475  45.0107  43.3830 0002861 287.3731  72.6802 14.32915316118922"
  ],
  "ORBCOMM": [
    "1 25477C 98053C   20056.39109416  .00000000  00000-0  00000-0 0  9996",
    "2 25477  45.0109  44.7390 0003785 282.1132  77.9290 14.32781959119391"
  ],
  "ORBCOMM": [
    "1 25481C 98053G   20056.35545510  .00000000  00000-0  00000-0 0  9996",
    "2 25481  45.0081  44.3279 0001986 301.6498  58.4155 14.32883734119365"
  ],
}, {
  "ORBCOMM": [
    "1 25980C 99065A   20056.76052016  .00000000  00000-0  00000-0 0  9993",
    "2 25980  45.0317 217.1076 0006148  79.4420 280.7119 14.32849689 56198"
  ],
  "ORBCOMM": [
    "1 25981C 99065B   20056.74924347  .00000000  00000-0  00000-0 0  9997",
    "2 25981  45.0230 212.2043 0003913 112.0168 248.1094 14.32854941 55829"
  ],
  "ORBCOMM": [
    "1 25982C 99065C   20056.77667887  .00000000  00000-0  00000-0 0  9994",
    "2 25982  45.0169 215.7645 0006474 109.4943 250.6602 14.32063793 56633"
  ],
  "ORBCOMM": [
    "1 25984C 99065E   20056.53845838  .00000000  00000-0  00000-0 0  9994",
    "2 25984  45.0368 221.3728 0002029   6.1787 353.9084 14.32822746 56218"
  ],
  "ORBCOMM": [
    "1 25985C 99065F   20056.48934343  .00000000  00000-0  00000-0 0  9999",
    "2 25985  45.0396 223.0087 0003619 113.4466 246.6761 14.32890688 56691"
  ],
  "ORBCOMM": [
    "1 25986C 99065G   20056.79821782  .00000000  00000-0  00000-0 0  9996",
    "2 25986  45.0393 221.2790 0003293  60.2290 299.8884 14.32813686 56725"
  ],
}, {
  "VESSELSAT": [
    "1 37840C 11058C   20056.88101909  .00000000  00000-0  00000-0 0  9996",
    "2 37840  19.9670 296.3581 0013811 116.5953 243.5855 14.10893439432456"
  ],
}, {
  "VESSELSAT": [
    "1 38047C 12001B   16300.92863863  .00000000  00000-0  00000-0 0  9991",
    "2 38047  97.3971  76.7789 0011130 260.8276  99.6698 16.49214973270564"
  ],
}, {
  "ORBCOMM": [
    "1 40086C 14040A   20056.93826308  .00000000  00000-0  00000-0 0 19675",
    "2 40086  47.0033 134.3064 0001108  80.9913 279.1097 14.54796809289803"
  ],
  "ORBCOMM": [
    "1 40087C 14040B   20056.96098340  .00000000  00000-0  00000-0 0 19755",
    "2 40087  47.0053 134.7862 0001151 102.1167 257.9846 14.54795677289800"
  ],
  "ORBCOMM": [
    "1 40088C 14040C   20056.52155584  .00000000  00000-0  00000-0 0 20248",
    "2 40088  47.0620  96.2072 0018280 109.9791 250.3068 14.64368607299304"
  ],
  "ORBCOMM": [
    "1 40090C 14040E   20056.68880069  .00000000  00000-0  00000-0 0 19676",
    "2 40090  47.0059 148.8316 0017364  15.4011 344.7398 14.53396099291351"
  ],
  "ORBCOMM": [
    "1 40091C 14040F   20056.98406612  .00000000  00000-0  00000-0 0 19937",
    "2 40091  47.0055 134.9718 0001073  79.2208 280.8797 14.54797449289812"
  ],
}, {
  "ORBCOMM": [
    "1 41179C 15081A   20056.96426916  .00000000  00000-0  00000-0 0 25788",
    "2 41179  47.0040  44.9388 0001775 144.4715 215.6288 14.54787625299552"
  ],
  "ORBCOMM": [
    "1 41180C 15081B   20056.78116981  .00000000  00000-0  00000-0 0 25722",
    "2 41180  47.0023 315.0576 0001861 222.9300 137.1439 14.54779971299858"
  ],
  "ORBCOMM": [
    "1 41181C 15081C   20056.65762568  .00000000  00000-0  00000-0 0 19900",
    "2 41181  47.0016 149.0252 0002550 275.2018  84.8570 14.43378458290050"
  ],
  "ORBCOMM": [
    "1 41182C 15081D   20056.94062497  .00000000  00000-0  00000-0 0 25892",
    "2 41182  47.0026  44.6195 0002176 292.0703  67.9949 14.54792320299523"
  ],
  "ORBCOMM": [
    "1 41183C 15081E   20056.98717074  .00000000  00000-0  00000-0 0 25862",
    "2 41183  47.0047  44.4275 0001854 294.9855  65.0836 14.54786129298696"
  ],
  "ORBCOMM": [
    "1 41184C 15081F   20056.96520768  .00000000  00000-0  00000-0 0 25829",
    "2 41184  46.9985 313.7022 0001800 198.5292 161.5527 14.54756865300713"
  ],
  "ORBCOMM": [
    "1 41185C 15081G   20056.94391730  .00000000  00000-0  00000-0 0 25687",
    "2 41185  47.0009 313.7953 0001877 212.3159 147.7610 14.54776357300769"
  ],
  "ORBCOMM": [
    "1 41186C 15081H   20056.98928321  .00000000  00000-0  00000-0 0 25639",
    "2 41186  46.9982 215.9402 0001415 203.0674 157.0148 14.58609499301168"
  ],
  "ORBCOMM": [
    "1 41187C 15081J   20056.97157248  .00000000  00000-0  00000-0 0 16091",
    "2 41187  47.0034 224.4418 0001630 105.3715 254.7349 14.54784505311774"
  ],
  "ORBCOMM": [
    "1 41188C 15081K   20056.93747734  .00000000  00000-0  00000-0 0 25633",
    "2 41188  46.9995 224.0243 0002475 120.0351 240.0779 14.54771881301057"
  ],
  "ORBCOMM": [
    "1 41189C 15081L   20056.98837556  .00000000  00000-0  00000-0 0 25787",
    "2 41189  47.0012 313.4024 0001863 199.4243 160.6570 14.54765445299893"
  ],
}];
